[{"OBJECT_NAME":"FLOCK 4G-11","OBJECT_ID":"2025-009W","EPOCH":"2026-03-09T10:57:03.681504","MEAN_MOTION":15.27220677,"ECCENTRICITY":0.00016118,"INCLINATION":97.3964,"RA_OF_ASC_NODE":150.6183,"ARG_OF_PERICENTER":333.5407,"MEAN_ANOMALY":26.575,"EPHEMERIS_TYPE":0,"CLASSIFICATION_TYPE":"U","NORAD_CAT_ID":62629,"ELEMENT_SET_NO":999,"REV_AT_EPOCH":6368,"BSTAR":0.00047740378,"MEAN_MOTION_DOT":0.00012672,"MEAN_MOTION_DDOT":0},{"OBJECT_NAME":"OBJECT C","OBJECT_ID":"2025-012C","EPOCH":"2026-03-09T23:21:30.920256","MEAN_MOTION":15.25321174,"ECCENTRICITY":0.00067398,"INCLINATION":97.4321,"RA_OF_ASC_NODE":145.036,"ARG_OF_PERICENTER":249.6621,"MEAN_ANOMALY":110.3894,"EPHEMERIS_TYPE":0,"CLASSIFICATION_TYPE":"U","NORAD_CAT_ID":62727,"ELEMENT_SET_NO":999,"REV_AT_EPOCH":6325,"BSTAR":0.0005750193,"MEAN_MOTION_DOT":0.00014438,"MEAN_MOTION_DDOT":0}]
